<?xml version="1.0" encoding="UTF-8"?>
<kml xmlns="http://www.opengis.net/kml/2.2">
  <Document>
    <name>Taman Monas</name>
    <Style id="poly-000000-1200-77-nodesc-normal">
      <LineStyle>
        <color>ff000000</color>
        <width>1.2</width>
      </LineStyle>
      <PolyStyle>
        <color>4d000000</color>
        <fill>1</fill>
        <outline>1</outline>
      </PolyStyle>
      <BalloonStyle>
        <text><![CDATA[<h3>$[name]</h3>]]></text>
      </BalloonStyle>
    </Style>
    <Style id="poly-000000-1200-77-nodesc-highlight">
      <LineStyle>
        <color>ff000000</color>
        <width>1.8</width>
      </LineStyle>
      <PolyStyle>
        <color>4d000000</color>
        <fill>1</fill>
        <outline>1</outline>
      </PolyStyle>
      <BalloonStyle>
        <text><![CDATA[<h3>$[name]</h3>]]></text>
      </BalloonStyle>
    </Style>
    <StyleMap id="poly-000000-1200-77-nodesc">
      <Pair>
        <key>normal</key>
        <styleUrl>#poly-000000-1200-77-nodesc-normal</styleUrl>
      </Pair>
      <Pair>
        <key>highlight</key>
        <styleUrl>#poly-000000-1200-77-nodesc-highlight</styleUrl>
      </Pair>
    </StyleMap>
    <Style id="poly-558B2F-1200-77-nodesc-normal">
      <LineStyle>
        <color>ff2f8b55</color>
        <width>1.2</width>
      </LineStyle>
      <PolyStyle>
        <color>4d2f8b55</color>
        <fill>1</fill>
        <outline>1</outline>
      </PolyStyle>
      <BalloonStyle>
        <text><![CDATA[<h3>$[name]</h3>]]></text>
      </BalloonStyle>
    </Style>
    <Style id="poly-558B2F-1200-77-nodesc-highlight">
      <LineStyle>
        <color>ff2f8b55</color>
        <width>1.8</width>
      </LineStyle>
      <PolyStyle>
        <color>4d2f8b55</color>
        <fill>1</fill>
        <outline>1</outline>
      </PolyStyle>
      <BalloonStyle>
        <text><![CDATA[<h3>$[name]</h3>]]></text>
      </BalloonStyle>
    </Style>
    <StyleMap id="poly-558B2F-1200-77-nodesc">
      <Pair>
        <key>normal</key>
        <styleUrl>#poly-558B2F-1200-77-nodesc-normal</styleUrl>
      </Pair>
      <Pair>
        <key>highlight</key>
        <styleUrl>#poly-558B2F-1200-77-nodesc-highlight</styleUrl>
      </Pair>
    </StyleMap>
    <Style id="poly-E65100-1200-77-nodesc-normal">
      <LineStyle>
        <color>ff0051e6</color>
        <width>1.2</width>
      </LineStyle>
      <PolyStyle>
        <color>4d0051e6</color>
        <fill>1</fill>
        <outline>1</outline>
      </PolyStyle>
      <BalloonStyle>
        <text><![CDATA[<h3>$[name]</h3>]]></text>
      </BalloonStyle>
    </Style>
    <Style id="poly-E65100-1200-77-nodesc-highlight">
      <LineStyle>
        <color>ff0051e6</color>
        <width>1.8</width>
      </LineStyle>
      <PolyStyle>
        <color>4d0051e6</color>
        <fill>1</fill>
        <outline>1</outline>
      </PolyStyle>
      <BalloonStyle>
        <text><![CDATA[<h3>$[name]</h3>]]></text>
      </BalloonStyle>
    </Style>
    <StyleMap id="poly-E65100-1200-77-nodesc">
      <Pair>
        <key>normal</key>
        <styleUrl>#poly-E65100-1200-77-nodesc-normal</styleUrl>
      </Pair>
      <Pair>
        <key>highlight</key>
        <styleUrl>#poly-E65100-1200-77-nodesc-highlight</styleUrl>
      </Pair>
    </StyleMap>
    <Style id="poly-FBC02D-1200-77-nodesc-normal">
      <LineStyle>
        <color>ff2dc0fb</color>
        <width>1.2</width>
      </LineStyle>
      <PolyStyle>
        <color>4d2dc0fb</color>
        <fill>1</fill>
        <outline>1</outline>
      </PolyStyle>
      <BalloonStyle>
        <text><![CDATA[<h3>$[name]</h3>]]></text>
      </BalloonStyle>
    </Style>
    <Style id="poly-FBC02D-1200-77-nodesc-highlight">
      <LineStyle>
        <color>ff2dc0fb</color>
        <width>1.8</width>
      </LineStyle>
      <PolyStyle>
        <color>4d2dc0fb</color>
        <fill>1</fill>
        <outline>1</outline>
      </PolyStyle>
      <BalloonStyle>
        <text><![CDATA[<h3>$[name]</h3>]]></text>
      </BalloonStyle>
    </Style>
    <StyleMap id="poly-FBC02D-1200-77-nodesc">
      <Pair>
        <key>normal</key>
        <styleUrl>#poly-FBC02D-1200-77-nodesc-normal</styleUrl>
      </Pair>
      <Pair>
        <key>highlight</key>
        <styleUrl>#poly-FBC02D-1200-77-nodesc-highlight</styleUrl>
      </Pair>
    </StyleMap>
    <Placemark>
      <name>Taman Monas</name>
      <styleUrl>#poly-000000-1200-77-nodesc</styleUrl>
      <Polygon>
        <outerBoundaryIs>
          <LinearRing>
            <tessellate>1</tessellate>
            <coordinates>
              106.8234358,-6.1715397,0
              106.8231815,-6.1798201,0
              106.830938,-6.1801045,0
              106.8299844,-6.1777658,0
              106.8300161,-6.1740365,0
              106.8290943,-6.1729303,0
              106.829126,-6.1715397,0
              106.8234358,-6.1715397,0
            </coordinates>
          </LinearRing>
        </outerBoundaryIs>
      </Polygon>
    </Placemark>
    <Placemark>
      <name>Gelora Bung Karno </name>
      <styleUrl>#poly-000000-1200-77-nodesc</styleUrl>
      <Polygon>
        <outerBoundaryIs>
          <LinearRing>
            <tessellate>1</tessellate>
            <coordinates>
              106.7988676,-6.215534,0
              106.7988676,-6.2161661,0
              106.7987404,-6.2166243,0
              106.7987086,-6.2179516,0
              106.7988834,-6.218394,0
              106.7988517,-6.2189944,0
              106.7989311,-6.2197055,0
              106.7989788,-6.2208748,0
              106.8031114,-6.2226129,0
              106.8037472,-6.2232133,0
              106.8050029,-6.2223917,0
              106.8067989,-6.221096,0
              106.8067989,-6.2158026,0
              106.8060042,-6.2158658,0
              106.8059247,-6.2156446,0
              106.7988676,-6.215534,0
            </coordinates>
          </LinearRing>
        </outerBoundaryIs>
      </Polygon>
    </Placemark>
    <Placemark>
      <name>Kebun Binatang Ragunan </name>
      <styleUrl>#poly-FBC02D-1200-77-nodesc</styleUrl>
      <Polygon>
        <outerBoundaryIs>
          <LinearRing>
            <tessellate>1</tessellate>
            <coordinates>
              106.8163121,-6.3049245,0
              106.816129,-6.3059255,0
              106.8168156,-6.3067444,0
              106.8168614,-6.3074724,0
              106.816129,-6.3079047,0
              106.8156026,-6.3097019,0
              106.8161748,-6.3105436,0
              106.8169759,-6.3104754,0
              106.8170216,-6.3113399,0
              106.817777,-6.3114081,0
              106.8175938,-6.3141608,0
              106.8164723,-6.3140698,0
              106.8162892,-6.3144565,0
              106.8165868,-6.315867,0
              106.8163808,-6.3171637,0
              106.8229268,-6.3172547,0
              106.8241399,-6.3174594,0
              106.8248494,-6.3173684,0
              106.8253072,-6.3144793,0
              106.8245976,-6.3136603,0
              106.8249638,-6.3132053,0
              106.8254674,-6.3129096,0
              106.8252614,-6.3127503,0
              106.8246892,-6.3125456,0
              106.8247578,-6.3120223,0
              106.8256047,-6.3122953,0
              106.8256734,-6.3111579,0
              106.8265431,-6.3113626,0
              106.8270238,-6.3087919,0
              106.8245747,-6.3084507,0
              106.824529,-6.3062894,0
              106.8232243,-6.3063349,0
              106.8228581,-6.3065852,0
              106.820638,-6.3064259,0
              106.8205693,-6.3058572,0
              106.8163121,-6.3049245,0
            </coordinates>
          </LinearRing>
        </outerBoundaryIs>
      </Polygon>
    </Placemark>
    <Placemark>
      <name>Taman Mini Indonesia Indah </name>
      <styleUrl>#poly-E65100-1200-77-nodesc</styleUrl>
      <Polygon>
        <outerBoundaryIs>
          <LinearRing>
            <tessellate>1</tessellate>
            <coordinates>
              106.8892927,-6.3038783,0
              106.8892511,-6.3049326,0
              106.8895486,-6.3050464,0
              106.8900779,-6.3050663,0
              106.8905586,-6.3049497,0
              106.8907074,-6.3046795,0
              106.8907074,-6.3042359,0
              106.8904928,-6.3037781,0
              106.8893327,-6.3037873,0
              106.8892927,-6.3038783,0
            </coordinates>
          </LinearRing>
        </outerBoundaryIs>
      </Polygon>
    </Placemark>
    <Placemark>
      <name>Tebet Echo Park</name>
      <styleUrl>#poly-558B2F-1200-77-nodesc</styleUrl>
      <Polygon>
        <outerBoundaryIs>
          <LinearRing>
            <tessellate>1</tessellate>
            <coordinates>
              106.8509752,-6.2326967,0
              106.850609,-6.2335386,0
              106.8507692,-6.2343805,0
              106.8516389,-6.2349038,0
              106.8527147,-6.2359959,0
              106.8522798,-6.2372018,0
              106.8517076,-6.2400459,0
              106.8527604,-6.2421846,0
              106.8539964,-6.2420481,0
              106.8529893,-6.2402734,0
              106.8530809,-6.2394543,0
              106.8535844,-6.2365875,0
              106.8532182,-6.234608,0
              106.8527376,-6.2345852,0
              106.8525316,-6.2334021,0
              106.8520967,-6.2334703,0
              106.8516389,-6.2337206,0
              106.8514787,-6.2333338,0
              106.8509752,-6.2326967,0
            </coordinates>
          </LinearRing>
        </outerBoundaryIs>
      </Polygon>
    </Placemark>
  </Document>
</kml>
